OBJECT_NAME,OBJECT_ID,EPOCH,MEAN_MOTION,ECCENTRICITY,INCLINATION,RA_OF_ASC_NODE,ARG_OF_PERICENTER,MEAN_ANOMALY,EPHEMERIS_TYPE,CLASSIFICATION_TYPE,NORAD_CAT_ID,ELEMENT_SET_NO,REV_AT_EPOCH,BSTAR,MEAN_MOTION_DOT,MEAN_MOTION_DDOT
GOMX-1,2013-066Q,2026-06-26T18:53:15.994752,14.69491428,.0129859,97.6486,17.6438,47.0653,314.1362,0,U,39430,999,67132,.29101E-3,.1913E-4,0
CUBEBUG-2 (LO-74),2013-066AA,2026-06-26T18:37:18.801120,14.93836496,.005745,97.8903,126.7948,357.3533,2.7374,0,U,39440,999,67842,.39049E-3,.422E-4,0
NEE-02 KRYSAOR,2013-066AB,2026-06-26T18:24:09.353952,14.86659035,.0067124,97.8892,116.9130,39.4303,321.1770,0,U,39441,999,67762,.29517E-3,.2672E-4,0
FUNCUBE-1 (AO-73),2013-066AE,2026-06-26T16:02:13.514208,15.09595526,.0036613,97.8272,149.3122,168.7354,191.4703,0,U,39444,999,68109,.46531E-3,.7529E-4,0
UWE-3,2013-066AG,2026-06-25T20:06:32.092416,14.97092153,.00468075,97.8708,132.9703,291.8607,67.7640,0,U,39446,999,67887,.38106409E-3,.4431E-4,0
SMDC ONE 2.4,2013-072H,2026-06-26T13:16:14.752992,15.18359041,.0146556,120.4939,28.2489,28.9495,331.9615,0,U,39469,999,11925,.40766E-3,.10809E-3,0
COSMOS 2488 (RODNIK-S 7),2013-076A,2026-06-26T16:44:08.589696,12.42906276,.0020892,82.4832,162.7696,75.6758,284.6639,0,U,39483,999,56707,.64074E-3,.99E-6,0
COSMOS 2489 (RODNIK-S 8),2013-076B,2026-06-26T18:04:38.296128,12.42879694,.00227,82.4868,164.1167,75.4992,284.8604,0,U,39484,999,56713,.17445E-4,.12E-6,0
COSMOS 2490 (RODNIK-S 9),2013-076C,2026-06-26T17:24:10.793952,12.42878554,.0022866,82.4815,162.1975,90.3246,270.0453,0,U,39485,999,56706,-.40772E-4,.4E-7,0
KAZEOSAT 1,2014-024A,2026-06-26T17:39:09.749664,14.42084357,.0001225,98.3206,249.9455,73.6643,286.4682,0,U,39731,999,63993,.13657E-3,.406E-5,0
COSMOS 2496 (RODNIK-S 10),2014-028A,2026-06-26T18:18:54.388800,12.42879218,.0021324,82.4452,102.7338,59.1164,301.2009,0,U,39761,999,54870,.45638E-3,.73E-6,0
COSMOS 2497 (RODNIK-S 11),2014-028B,2026-06-26T17:43:08.149728,12.42894634,.0021822,82.4500,104.4428,54.4574,305.8536,0,U,39762,999,54870,-.17821E-3,-.15E-6,0
COSMOS 2498 (RODNIK-S 12),2014-028C,2026-06-26T19:05:50.270208,12.42980553,.0022553,82.4461,102.8898,53.9050,306.4114,0,U,39763,999,54874,.29555E-4,.14E-6,0
HODOYOSHI-4,2014-033B,2026-06-26T18:48:42.443712,14.88147235,.0022103,97.5454,2.1432,274.5794,85.2899,0,U,40011,999,65023,.15937E-3,.1421E-4,0
UNISAT-6,2014-033C,2026-06-26T16:19:50.106720,14.88289087,.0045701,97.7883,330.2257,38.7415,321.7064,0,U,40012,999,64757,.26905E-3,.2478E-4,0
DEIMOS-2,2014-033D,2026-06-26T16:41:24.097920,14.93750188,.000122,97.5829,51.8503,55.1679,304.9656,0,U,40013,999,63914,.98198E-4,.986E-5,0
BUGSAT-1 (TITA),2014-033E,2026-06-26T17:47:25.694304,15.15689264,.0028658,98.0428,270.8491,146.2577,214.0485,0,U,40014,999,65728,.39822E-3,.7586E-4,0
SAUDISAT 4,2014-033G,2026-06-26T15:42:35.824320,14.79555781,.0045743,97.7593,323.4622,44.0198,316.4642,0,U,40016,999,64747,.81509E-4,.569E-5,0
APRIZESAT 9,2014-033J,2026-06-26T15:24:38.024064,14.74227149,.0066439,97.9070,310.6101,168.7380,191.5334,0,U,40018,999,64495,.11067E-3,.705E-5,0
BRITE-CA1 (TORONTO),2014-033L,2026-06-26T14:49:50.498976,14.72690189,.0077328,97.9749,306.3725,246.2869,113.0213,0,U,40020,999,64360,.12727E-3,.796E-5,0
DUCHIFAT-1,2014-033M,2026-06-26T14:38:02.171040,15.66536146,.0001317,98.0448,238.1065,100.0937,260.0470,0,U,40021,999,65722,.10572E-2,.111371E-2,0
NANOSATC-BR1,2014-033Q,2026-06-26T08:27:00.123264,15.31739274,.0005038,98.0721,210.5531,140.2235,219.9374,0,U,40024,999,65538,.62707E-3,.19164E-3,0
